NORAD_CAT_ID,OBJECT_NAME,OBJECT_TYPE,EPOCH,MEAN_MOTION,ECCENTRICITY,INCLINATION,RA_OF_ASC_NODE,ARG_OF_PERICENTER,MEAN_ANOMALY,BSTAR,MEAN_MOTION_DOT,MEAN_MOTION_DDOT,TLE_LINE0,TLE_LINE1,TLE_LINE2,SEMIMAJOR_AXIS,PERIOD,APOGEE,PERIGEE,DECAYED
52349.0,STARLINK-3819,PAYLOAD,2022-12-03 20:28:53,15.08837651,0.0003237,53.2156,149.4784,51.7601,308.3682,-4.4438e-06,-3.6000000000000007e-06,0.0,0 STARLINK-3819,1 52349U 22045U   22337.85339299 -.00000360  00000-0 -44438-5 0  9990,2 52349  53.2156 149.4784 0003237  51.7601 308.3682 15.08837651 35854,6917.888000000001,95.438,541.992,537.513,0.0
52349.0,STARLINK-3819,PAYLOAD,2022-12-04 10:47:21,15.08840434,0.0003204,53.2164,146.8021,53.6798,306.4489,7.121799999999999e-06,-1.75e-06,0.0,0 STARLINK-3819,1 52349U 22045U   22338.44955104 -.00000175  00000-0  71218-5 0  9994,2 52349  53.2164 146.8021 0003204  53.6798 306.4489 15.08840434 35947,6917.879,95.438,541.961,537.528,0.0
52349.0,STARLINK-3819,PAYLOAD,2022-12-04 12:22:44,15.08839818,0.0003241,53.2156,146.5044,52.9285,307.2003,3.9519e-06,-2.26e-06,0.0,0 STARLINK-3819,1 52349U 22045U   22338.51579140 -.00000226  00000-0  39519-5 0  9999,2 52349  53.2156 146.5044 0003241  52.9285 307.2003 15.08839818 35950,6917.880999999999,95.438,541.988,537.504,0.0
52349.0,STARLINK-3819,PAYLOAD,2022-12-04 17:08:53,15.08844239,0.0003208999999999,53.2157,145.6122,52.7003,307.4282,5.4725e-06,-2.02e-06,0.0,0 STARLINK-3819,1 52349U 22045U   22338.71450870 -.00000202  00000-0  54725-5 0  9999,2 52349  53.2157 145.6122 0003209  52.7003 307.4282 15.08844239 35985,6917.8669999999975,95.437,541.952,537.512,0.0
52349.0,STARLINK-3819,PAYLOAD,2022-12-05 10:38:07,15.08842776,0.0003197,53.2167,142.3415,53.8826,306.2462,0.00013402,1.845e-05,0.0,0 STARLINK-3819,1 52349U 22045U   22339.44314457  .00001845  00000-0  13402-3 0  9998,2 52349  53.2167 142.3415 0003197  53.8826 306.2462 15.08842776 36090,6917.871999999999,95.437,541.9490000000002,537.525,0.0
52349.0,STARLINK-3819,PAYLOAD,2022-12-05 18:35:03,15.08842089,0.0003092,53.2165,140.8556,53.9573,306.1705,0.00010148,1.327e-05,0.0,0 STARLINK-3819,1 52349U 22045U   22339.77434526  .00001327  00000-0  10148-3 0  9993,2 52349  53.2165 140.8556 0003092  53.9573 306.1705 15.08842089 36143,6917.874,95.437,541.878,537.6,0.0
52349.0,STARLINK-3819,PAYLOAD,2022-12-06 10:28:55,15.08838091,0.0003113,53.2167,137.8817,54.3434,305.7847,9.1686e-06,-1.43e-06,0.0,0 STARLINK-3819,1 52349U 22045U   22340.43675123 -.00000143  00000-0  91686-5 0  9992,2 52349  53.2167 137.8817 0003113  54.3434 305.7847 15.08838091 36247,6917.886,95.438,541.905,537.5980000000002,0.0
52349.0,STARLINK-3819,PAYLOAD,2022-12-06 20:01:13,15.08844534,0.0003156,53.2164,136.0968,54.9218,305.207,5.3125e-05,5.57e-06,0.0,0 STARLINK-3819,1 52349U 22045U   22340.83418505  .00000557  00000-0  53125-4 0  9998,2 52349  53.2164 136.0968 0003156  54.9218 305.2070 15.08844534 36304,6917.8669999999975,95.437,541.915,537.548,0.0
52349.0,STARLINK-3819,PAYLOAD,2022-12-07 19:52:00,15.08854034,0.0003162,53.2168,131.6359,58.6696,301.4605,-0.00020043,-3.479e-05,0.0,0 STARLINK-3819,1 52349U 22045U   22341.82778425 -.00003479  00000-0 -20043-3 0  9998,2 52349  53.2168 131.6359 0003162  58.6696 301.4605 15.08854034 36455,6917.837,95.437,541.89,537.515,0.0
52349.0,STARLINK-3819,PAYLOAD,2022-12-08 03:48:56,15.08843654,0.000319,53.2163,130.1506,54.5184,305.6105,0.00011685,1.572e-05,0.0,0 STARLINK-3819,1 52349U 22045U   22342.15898327  .00001572  00000-0  11685-3 0  9991,2 52349  53.2163 130.1506 0003190  54.5184 305.6105 15.08843654 36509,6917.869000000002,95.437,541.941,537.5269999999998,0.0
52349.0,STARLINK-3819,PAYLOAD,2022-12-08 10:10:28,15.08848063,0.0003188999999999,53.2163,128.961,54.2944,305.8345,0.00010642,1.406e-05,0.0,0 STARLINK-3819,1 52349U 22045U   22342.42394055  .00001406  00000-0  10642-3 0  9998,2 52349  53.2163 128.9610 0003189  54.2944 305.8345 15.08848063 36540,6917.856,95.437,541.927,537.515,0.0
52349.0,STARLINK-3819,PAYLOAD,2022-12-08 16:32:00,15.08851143,0.0003038,53.2165,127.773,53.0202,307.1068,0.00012447,1.694e-05,0.0,0 STARLINK-3819,1 52349U 22045U   22342.68889655  .00001694  00000-0  12447-3 0  9995,2 52349  53.2165 127.7730 0003038  53.0202 307.1068 15.08851143 36583,6917.846,95.437,541.813,537.61,0.0
52349.0,STARLINK-3819,PAYLOAD,2022-12-09 19:33:35,15.08829197,0.0003298,53.2162,122.7195,50.5213,309.6071,-1.6829e-05,-5.57e-06,0.0,0 STARLINK-3819,1 52349U 22045U   22343.81499752 -.00000557  00000-0 -16829-4 0  9994,2 52349  53.2162 122.7195 0003298  50.5213 309.6071 15.08829197 36756,6917.913000000001,95.438,542.06,537.497,0.0
52349.0,STARLINK-3819,PAYLOAD,2022-12-10 13:02:50,15.08809155,0.0002371,53.2182,119.45,32.3103,327.8034,0.00034899,5.266e-05,0.0,0 STARLINK-3819,1 52349U 22045U   22344.54364524  .00005266  00000-0  34899-3 0  9999,2 52349  53.2182 119.4500 0002371  32.3103 327.8034 15.08809155 36863,6917.975,95.44,541.48,538.1990000000002,0.0
52349.0,STARLINK-3819,PAYLOAD,2022-12-10 14:38:13,15.08830005,0.000294,53.2182,119.152,46.8315,313.2922,5.9625e-05,6.6e-06,0.0,0 STARLINK-3819,1 52349U 22045U   22344.60988138  .00000660  00000-0  59625-4 0  9997,2 52349  53.2182 119.1520 0002940  46.8315 313.2922 15.08830005 36873,6917.911,95.438,541.81,537.742,0.0
52349.0,STARLINK-3819,PAYLOAD,2022-12-10 20:59:45,15.08841832,0.0003206,53.2173,117.9607,46.5719,313.5540000000001,1.3886e-05,-6.8e-07,0.0,0 STARLINK-3819,1 52349U 22045U   22344.87483512 -.00000068  00000-0  13886-4 0  9994,2 52349  53.2173 117.9607 0003206  46.5719 313.5540 15.08841832 36910,6917.875,95.437,541.9580000000002,537.5219999999998,0.0
52349.0,STARLINK-3819,PAYLOAD,2022-12-11 12:53:36,15.08837068,0.0002958,53.2174,114.9855,50.2445,309.8807,0.00022062,3.224e-05,0.0,0 STARLINK-3819,1 52349U 22045U   22345.53723300  .00003224  00000-0  22062-3 0  9991,2 52349  53.2174 114.9855 0002958  50.2445 309.8807 15.08837068 37016,6917.889,95.438,541.8009999999998,537.7080000000002,0.0
52349.0,STARLINK-3819,PAYLOAD,2022-12-11 14:29:00,15.08836971,0.0002975,53.2173,114.6883,50.087,310.0383,0.00021597,3.15e-05,0.0,0 STARLINK-3819,1 52349U 22045U   22345.60347361  .00003150  00000-0  21597-3 0  9998,2 52349  53.2173 114.6883 0002975  50.0870 310.0383 15.08836971 37028,6917.89,95.438,541.813,537.697,0.0
52349.0,STARLINK-3819,PAYLOAD,2022-12-12 12:44:24,15.08838719,0.0002915,53.2171,110.5239,56.4557,303.6714,0.00011163,1.488e-05,0.0,0 STARLINK-3819,1 52349U 22045U   22346.53083804  .00001488  00000-0  11163-3 0  9990,2 52349  53.2171 110.5239 0002915  56.4557 303.6714 15.08838719 37165,6917.884,95.438,541.766,537.7330000000002,0.0
52349.0,STARLINK-3819,PAYLOAD,2022-12-13 01:27:28,15.08854014,0.0003077,53.2174,108.1452,49.6455,310.4806,-6.582800000000001e-05,-1.337e-05,0.0,0 STARLINK-3819,1 52349U 22045U   22347.06075138 -.00001337  00000-0 -65828-4 0  9993,2 52349  53.2174 108.1452 0003077  49.6455 310.4806 15.08854014 37242,6917.8380000000025,95.437,541.831,537.5740000000002,0.0
52349.0,STARLINK-3819,PAYLOAD,2022-12-13 14:10:33,15.0884642,0.0002962,53.2172,105.7662,53.4124,306.714,6.8593e-05,8.03e-06,0.0,0 STARLINK-3819,1 52349U 22045U   22347.59067104  .00000803  00000-0  68593-4 0  9992,2 52349  53.2172 105.7662 0002962  53.4124 306.7140 15.08846420 37324,6917.861,95.437,541.775,537.677,0.0
52349.0,STARLINK-3819,PAYLOAD,2022-12-14 01:18:16,15.08840733,0.0002786,53.2164,103.6845,52.1793,307.9451,3.4092e-05,2.54e-06,0.0,0 STARLINK-3819,1 52349U 22045U   22348.05435432  .00000254  00000-0  34092-4 0  9994,2 52349  53.2164 103.6845 0002786  52.1793 307.9451 15.08840733 37393,6917.878000000002,95.438,541.67,537.816,0.0
52349.0,STARLINK-3819,PAYLOAD,2022-12-14 14:01:21,15.08841028,0.0002815,53.217,101.3058,52.9235,307.2014,3.1663000000000005e-05,2.15e-06,0.0,0 STARLINK-3819,1 52349U 22045U   22348.58427408  .00000215  00000-0  31663-4 0  9994,2 52349  53.2170 101.3058 0002815  52.9235 307.2014 15.08841028 37478,6917.877,95.437,541.69,537.795,0.0
52349.0,STARLINK-3819,PAYLOAD,2022-12-14 18:47:31,15.08834094,0.0002768999999999,53.2159,100.4135,51.468,308.656,3.8325e-05,3.21e-06,0.0,0 STARLINK-3819,1 52349U 22045U   22348.78299830  .00000321  00000-0  38325-4 0  9992,2 52349  53.2159 100.4135 0002769  51.4680 308.6560 15.08834094 37507,6917.898,95.438,541.679,537.8480000000002,0.0
52349.0,STARLINK-3819,PAYLOAD,2022-12-15 07:30:35,15.0883885,0.0002738,53.2166,98.0346,50.0225,310.1007,2.0987e-05,4.5e-07,0.0,0 STARLINK-3819,1 52349U 22045U   22349.31291596  .00000045  00000-0  20987-4 0  9991,2 52349  53.2166  98.0346 0002738  50.0225 310.1007 15.08838850 37583,6917.884,95.438,541.643,537.855,0.0
52349.0,STARLINK-3819,PAYLOAD,2022-12-15 13:52:07,15.0884914,0.0002691,53.217,96.8452,54.1836,305.9406,0.00010817,1.434e-05,0.0,0 STARLINK-3819,1 52349U 22045U   22349.57786615  .00001434  00000-0  10817-3 0  9993,2 52349  53.2170  96.8452 0002691  54.1836 305.9406 15.08849140 37627,6917.852,95.437,541.5790000000002,537.856,0.0
52349.0,STARLINK-3819,PAYLOAD,2022-12-15 17:02:53,15.08847228,0.0002761,53.2165,96.2511,52.3406,307.7836,0.0001008,1.316e-05,0.0,0 STARLINK-3819,1 52349U 22045U   22349.71034707  .00001316  00000-0  10080-3 0  9998,2 52349  53.2165  96.2511 0002761  52.3406 307.7836 15.08847228 37646,6917.858,95.437,541.633,537.813,0.0
52349.0,STARLINK-3819,PAYLOAD,2022-12-16 13:42:54,15.08842605,0.0002603,53.217,92.3851,48.6751,311.4465,8.564e-05,1.075e-05,0.0,0 STARLINK-3819,1 52349U 22045U   22350.57146708  .00001075  00000-0  85640-4 0  9996,2 52349  53.2170  92.3851 0002603  48.6751 311.4465 15.08842605 37770,6917.871999999999,95.437,541.538,537.937,0.0
52349.0,STARLINK-3819,PAYLOAD,2022-12-16 18:29:04,15.08839486,0.0002554,53.2165,91.4935,44.8131,315.3068,4.9076e-05,4.93e-06,0.0,0 STARLINK-3819,1 52349U 22045U   22350.77018926  .00000493  00000-0  49076-4 0  9994,2 52349  53.2165  91.4935 0002554  44.8131 315.3068 15.08839486 37801,6917.882,95.438,541.514,537.98,0.0
